FLOCK 1C-3              
1 40041U 14033AH  17336.33393372  .00001047  00000-0  11730-3 0  9990
2 40041  97.9202 248.8666 0014136  98.6105 261.6688 14.88936997187517
POLYITAN-1              
1 40042U 14033AJ  17336.35207502  .00000447  00000-0  54449-4 0  9990
2 40042  97.9152 247.1587 0016104  99.4570 260.8467 14.88239228186921
TIGRISAT                
1 40043U 14033AK  17336.59354284  .00000185  00000-0  34752-4 0  9991
2 40043  97.8334 215.7519 0061398 111.6433 249.1330 14.74064399185343
LEMUR-1                 
1 40044U 14033AL  17336.73049758  .00000211  00000-0  38760-4 0  9998
2 40044  97.8330 215.5789 0060531 112.4566 248.3068 14.73891360185659
AEROCUBE 6A             
1 40045U 14033AM  17336.72519984  .00000482  00000-0  77086-4 0  9995
2 40045  97.8473 217.5157 0059261 106.1135 254.6610 14.74995407185560
AEROCUBE 6B             
1 40046U 14033AN  17336.58952161  .00000449  00000-0  72454-4 0  9995
2 40046  97.8457 217.2969 0058556 106.1205 254.6461 14.74988787185304
UKUBE-1                 
1 40074U 14037F   17336.83931385  .00000416  00000-0  57475-4 0  9993
2 40074  98.3638  99.5275 0003655 216.9748 143.1217 14.83666006184188
BRITE-PL 2              
1 40119U 14049B   17336.55899377  .00000188  00000-0  29022-4 0  9992
2 40119  97.9298  61.5161 0016176 258.9174 101.0221 14.84222302178043
FIREBIRD 4              
1 40378U 15003C   17336.79156202  .00002157  00000-0  92825-4 0  9998
2 40378  99.1092 194.4934 0133880 162.7926 197.7907 15.16415631156559
GRIFEX                  
1 40379U 15003D   17336.79520200  .00001652  00000-0  76773-4 0  9995
2 40379  99.1125 191.5539 0140172 172.5717 187.7632 15.13730761156381
EXOCUBE                 
1 40380U 15003E   17336.55689875  .00001500  00000-0  72825-4 0  9991
2 40380  99.1181 189.6378 0144152 178.7209 181.4415 15.12063300156220
DEORBITSAIL             
1 40719U 15032E   17336.63524091  .00000535  00000-0  84563-4 0  9995
2 40719  97.9627 228.1193 0015946 325.5274  34.4900 14.76259594129174
TIANWANG 1C (TW-1C)     
1 40926U 15051B   17336.81929101  .00009471  00000-0  19607-3 0  9991
2 40926  97.2107  15.2187 0008930 279.1125 168.4140 15.45945312122941
TIANWANG 1B (TW-1B)     
1 40927U 15051C   17336.81821874  .00009416  00000-0  20275-3 0  9992
2 40927  97.2193  15.1553 0008983 292.9186 154.5492 15.44786796122877
TIANWANG 1A (TW-1A)     
1 40928U 15051D   17336.87111267  .00003322  00000-0  92278-4 0  9990
2 40928  97.2102   9.6278 0011101 318.0913 166.3216 15.37522872122605
LEMUR-2-JOEL            
1 40932U 15052C   17335.75872057  .00000222  00000-0 -57894-4 0  9995
2 40932   6.0071 111.3210 0014632 107.2661 252.8863 14.77586146117835
LEMUR-2-CHRIS           
1 40933U 15052D   17325.89088280 -.00030049  00000-0 -41914-2 0  9992
2 40933   6.0134 180.2460 0015115 336.4131  23.5281 14.77714852116386
LEMUR-2-JEROEN          
1 40934U 15052E   17333.96659469  .00001070  00000-0  59192-4 0  9992
2 40934   6.0037 129.0689 0012089  67.9313 292.2636 14.77096269117484
LEMUR-2-PETER           
1 40935U 15052F   17334.82281973  .00001025  00000-0  53592-4 0  9998
2 40935   6.0028 124.7838 0010430  77.1051 283.0335 14.76862007117612
EXACTVIEW 9             
1 40936U 15052G   17336.77235253  .00000820  00000-0  25841-4 0  9993
2 40936   6.0010 114.0971 0010334  94.6861 265.4614 14.76328139117897
ATHENOXAT 1             
1 41168U 15077C   17336.53065972  .00002520  00000-0  10317-3 0  9991
2 41168  14.9874  19.0815 0012165 187.5600  35.3948 15.12252283108553
GALASSIA                
1 41170U 15077E   17336.48954333  .00002254  00000-0  86977-4 0  9996
2 41170  14.9901  14.8335 0013379 209.9249 150.0307 15.12680988108598
VELOX 2                 
1 41171U 15077F   17336.52212075  .00001752  00000-0  64519-4 0  9992
2 41171  14.9925  30.9409 0009044 159.0760 200.9931 15.10313572108456
AGGIESAT 4              
1 41313U 98067HP  17336.11914722  .00068606  00000-0  23404-3 0  9991
2 41313  51.6350 213.2639 0004007 127.7371 232.3998 15.89119643105479
HORYU-IV                
1 41340U 16012D   17336.60040225  .00000581  00000-0  37890-4 0  9996
2 41340  31.0047 117.7264 0014329 303.7691  56.1579 15.00820086 98331
OUFTI-1                 
1 41458U 16025C   17336.68518485  .00002880  00000-0  15395-3 0  9995
2 41458  98.1651  23.8239 0172878  86.2669 275.8280 15.04004945 87897
E-ST@R-II               
1 41459U 16025D   17336.72677025  .00001782  00000-0  96904-4 0  9993
2 41459  98.1673  23.7793 0174841  86.5772 275.5422 15.03790275 87898
AAUSAT 4                
1 41460U 16025E   17336.80974441  .00003367  00000-0  17868-3 0  9998
2 41460  98.1606  24.1028 0165848  83.7912 278.2157 15.04976872 87945
DIWATA-1                
1 41463U 98067HT  17336.78805344  .00011778  00000-0  11754-3 0  9992
2 41463  51.6396 252.4098 0002264  93.8048   6.2007 15.66131933 91188
FLOCK 2E'-1             
1 41479U 98067HZ  17336.87668735  .00048647  00000-0  24605-3 0  9994
2 41479  51.6330 230.4074 0003296 126.5628 233.5678 15.81055559 88425
FLOCK 2E'-3             
1 41480U 98067JA  17336.25703280  .00044595  00000-0  23842-3 0  9993
2 41480  51.6271 233.7597 0003234 125.5177 234.6126 15.79880289 88318
FLOCK 2E'-2             
1 41481U 98067JB  17334.77617065  .16809613  12434-4  52553-3 0  9990
2 41481  51.6166 233.3710 0007521 225.1371 134.8092 16.44458340 88170
FLOCK 2E-1              
1 41483U 98067JD  17336.71958313  .00032063  00000-0  19956-3 0  9994
2 41483  51.6361 234.7260 0002319 110.2874 249.8376 15.76643578 88205
FLOCK 2E-2              
1 41484U 98067JE  17336.16589132  .00138909  00000-0  56785-3 0  9990
2 41484  51.6296 232.4915 0003365 152.2402 207.8782 15.85158637 88189
FLOCK 2E-3              
1 41486U 98067JG  17336.21457196  .00040174  00000-0  22967-3 0  9993
2 41486  51.6321 238.0641 0002699 112.1161 248.0127 15.78444463 88136
FLOCK 2E-4              
1 41487U 98067JH  17336.88812023  .00078297  00000-0  46606-3 0  9994
2 41487  51.6304 233.5540 0001867 104.4038 255.7170 15.77260147 88259
FLOCK 2E-6              
1 41563U 98067JM  17335.95776736  .00117834  00000-0  57420-3 0  9993
2 41563  51.6326 241.5895 0005468 147.3537 212.7804 15.81493907 86130
FLOCK 2E-5              
1 41564U 98067JN  17336.16596441  .00033649  00000-0  23773-3 0  9996
2 41564  51.6328 242.2620 0003345 115.1559 244.9787 15.73691093 86130
FLOCK 2E-7              
1 41565U 98067JP  17336.76072889  .00042793  00000-0  21789-3 0  9993
2 41565  51.6280 229.5933 0004613  95.6043 264.5485 15.80961139 86257
FLOCK 2E'-5             
1 41567U 98067JR  17336.33076046  .00027673  00000-0  20766-3 0  9991
2 41567  51.6342 244.1588 0005056  75.4522 284.7037 15.72372981 85996
FLOCK 2E'-6             
1 41568U 98067JS  17336.80540261  .00039303  00000-0  24602-3 0  9995
2 41568  51.6294 235.9734 0004670  93.6332 266.5202 15.76400798 86171
FLOCK 2E'-8             
1 41569U 98067JT  17336.74757611  .00050317  00000-0  24584-3 0  9995
2 41569  51.6318 228.7768 0002923 105.6468 254.4857 15.81792571 86147
FLOCK 2E-9              
1 41571U 98067JV  17336.86403232  .00286148  42456-4  79156-3 0  9991
2 41571  51.6261 225.0303 0004803 184.0660 176.0309 15.93341851 86185
FLOCK 2E-10             
1 41572U 98067JW  17336.84619997  .00037259  00000-0  19808-3 0  9997
2 41572  51.6340 230.9967 0004322  94.7024 265.4471 15.80084679 86105
FLOCK 2E-12             
1 41573U 98067JX  17336.13523269  .00069831  00000-0  33073-3 0  9997
2 41573  51.6314 232.1910 0004849  99.7570 260.3980 15.82318864 86022
FLOCK 2E-11             
1 41574U 98067JY  17336.57066668  .00048689  00000-0  23628-3 0  9994
2 41574  51.6255 228.9964 0005694 105.5773 254.5858 15.81936813 86106
FLOCK 2E'-9             
1 41575U 98067JZ  17336.69044873  .00069280  00000-0  27602-3 0  9998
2 41575  51.6284 225.2611 0006107 120.7992 239.3613 15.85949971 86158
FLOCK 2E'-10            
1 41576U 98067KA  17336.76094920  .00056654  00000-0  24815-3 0  9999
2 41576  51.6311 228.1459 0006133 116.7490 243.4142 15.84053740 86027
FLOCK 2E'-11            
1 41577U 98067KB  17336.56517786  .00048800  00000-0  25073-3 0  9999
2 41577  51.6336 231.3907 0004905  93.0884 267.0679 15.80704024 85781
FLOCK 2E'-12            
1 41578U 98067KC  17336.79244906  .00082830  00000-0  31705-3 0  9996
2 41578  51.6254 225.9554 0005827 115.5904 244.5703 15.86706988 85870
FLOCK 2P-6              
1 41606U 16040H   17336.85228879  .00005200  00000-0  22021-3 0  9994
2 41606  97.4408  38.1705 0010218 194.9132 165.1805 15.23559635 80374
FLOCK 2P-11             
1 41608U 16040K   17336.79155910  .00002425  00000-0  10461-3 0  9995
2 41608  97.4402  38.0718 0010239 195.2219 164.8711 15.23462530 80308
FLOCK 2P-2              
1 41609U 16040L   17336.61073908  .00004208  00000-0  17865-3 0  9999
2 41609  97.4408  37.8890 0010098 195.4057 164.6874 15.23588321 80257
FLOCK 2P-9              
1 41610U 16040M   17336.42545515  .00004361  00000-0  18514-3 0  9990
2 41610  97.4406  37.6587 0010357 196.5592 163.5308 15.23565302 80100
FLOCK 2P-4              
1 41611U 16040N   17336.84752768  .00004321  00000-0  18388-3 0  9992
2 41611  97.4431  38.3364 0010223 204.5957 155.4793 15.23489940 80333
FLOCK 2P-10             
1 41612U 16040P   17336.43088607  .00004306  00000-0  18293-3 0  9990
2 41612  97.4439  38.0084 0010026 206.0472 154.0262 15.23557979 80275
FLOCK 2P-8              
1 41613U 16040Q   17336.18501380  .00001431  00000-0  62942-4 0  9998
2 41613  97.4428  37.6979 0010128 206.3210 153.7514 15.23481160 80238
FLOCK 2P-12             
1 41614U 16040R   17336.60594597  .00004183  00000-0  17778-3 0  9991
2 41614  97.4443  38.2740 0009869 204.5874 155.4893 15.23558610 80307
FLOCK 2P-7              
1 41615U 16040S   17336.50658827  .00001686  00000-0  73514-4 0  9994
2 41615  97.4428  38.0143 0010204 205.5905 154.4828 15.23529063 80281
